0 EUTE 28B (EUTE W2M)
1 33460U 08065B   13283.07287089  .00000000  00000-0  10000-3 0  8075
2 33460 000.0501 058.3261 0003373 258.2202 117.0841 01.00273856786900
0 EUTE 28B (EUTE W2M)
1 33460U 08065B   13284.10213712  .00000131  00000-0  10000-3 0  8077
2 33460 000.0591 054.6385 0003015 300.8056 089.6805 01.00273204 17660
0 EUTE 28B (EUTE W2M)
1 33460U 08065B   13285.85127110  .00000127  00000-0  10000-3 0  8093
2 33460 000.0615 059.3370 0002967 293.2651 003.9420 01.00273811 17671
0 EUTE 28B (EUTE W2M)
1 33460U 08065B   13287.15070983  .00000125  00000-0  10000-3 0  8103
2 33460 000.0643 061.9131 0002917 289.1183 114.5995 01.00274298 17693
0 EUTE 28B (EUTE W2M)
1 33460U 08065B   13288.15343779  .00000125  00000-0  10000-3 0  8111
2 33460 000.0662 062.4455 0002901 286.9010 118.2642 01.00274783 17707
0 EUTE 28B (EUTE W2M)
1 33460U 08065B   13289.64357645  .00000127  00000-0  10000-3 0  8126
2 33460 000.0698 063.2724 0002895 283.0250 299.2512 01.00275691 17716
0 EUTE 28B (EUTE W2M)
1 33460U 08065B   13290.66413163  .00000129  00000-0  10000-3 0  8131
2 33460 000.0707 064.2049 0002958 274.2477 315.5166 01.00276387 17722
0 EUTE 28B (EUTE W2M)
1 33460U 08065B   13291.70719987  .00000131  00000-0  10000-3 0  8144
2 33460 000.0756 059.3867 0003087 291.2654 319.8699 01.00276866 17730
0 EUTE 28B (EUTE W2M)
1 33460U 08065B   13292.08747405  .00000132  00000-0  10000-3 0  8154
2 33460 000.0584 057.8637 0002799 280.5830 109.3415 01.00276143 17740
0 EUTE 28B (EUTE W2M)
1 33460U 08065B   13295.12260611  .00000137  00000-0  10000-3 0  8167
2 33460 000.0383 046.9045 0003059 279.8972 136.5853 01.00270699 17778
